STARLINK-3609           
1 51808U 22017AS  22100.50001157 -.00019491  00000+0 -13440-3 0  9998
2 51808  53.2145 286.5314 0001074  95.8814  28.1825 15.73265511  8134
STARLINK-3607           
1 51809U 22017AT  22100.58334491 -.00077453  00000+0 -55010-3 0  9998
2 51809  53.2140 286.1228 0001201  86.8108 146.9973 15.73302670  8140
STARLINK-3613           
1 51810U 22017AU  22100.50001157 -.00058438  00000+0 -41327-3 0  9990
2 51810  53.2143 286.5283 0001066  68.5907  56.7425 15.73289432  8132
STARLINK-3569           
1 51811U 22017AV  22099.91667824  .00038382  00000+0  27665-3 0  9995
2 51811  53.2145 289.4199 0000957  76.5550 341.4173 15.73199253  3707
STARLINK-3610           
1 51812U 22017AW  22099.91667824  .00110676  00000+0  78390-3 0  9994
2 51812  53.2135 289.4137 0001297  92.2455 328.0645 15.73162416  3702
STARLINK-3552           
1 51813U 22017AX  22100.16667824 -.00048429  00000+0 -34109-3 0  9993
2 51813  53.2137 288.1795 0001013  87.3215 308.3791 15.73305023  8088
STARLINK-3599           
1 51814U 22017AY  22099.91667824  .00114016  00000+0  80703-3 0  9999
2 51814  53.2129 289.4102 0001230  82.3056 339.2818 15.73164460  3700
STARLINK-3604           
1 51815U 22017AZ  22100.50001157 -.00013351  00000+0 -90707-4 0  9997
2 51815  53.2138 286.5238 0001284  79.5925  47.0742 15.73238300  8138
STARLINK-3603           
1 51816U 22017BA  22100.50001157  .00020587  00000+0  15063-3 0  9996
2 51816  53.2145 286.5238 0000997  90.5429  37.5020 15.73217392  8185
STARLINK-3596           
1 51817U 22017BB  22099.82348992 -.00029969  00000+0 -15254-3 0  9997
2 51817  53.2186 286.7198 0008068 277.6570  82.3537 15.80278761  8074
L-SAR 01B               
1 51822U 22018A   22100.51721163  .00000314  00000+0  39723-4 0  9997
2 51822  97.8104 108.8552 0001817  95.5196 264.6263 14.88414776  6320
2022-019A               
1 51824U 22019A   22100.50639537  .00006274  00000+0  40003-3 0  9995
2 51824  97.5142 176.4348 0022154 124.4317 343.8906 15.08860983  6398
2022-019B               
1 51825U 22019B   22100.49705383  .00005112  00000+0  32513-3 0  9994
2 51825  97.5144 176.4345 0020202 121.1348 333.5716 15.09077718  6389
2022-019C               
1 51826U 22019C   22100.49084221  .00006282  00000+0  39574-3 0  9999
2 51826  97.5146 176.4377 0019715 122.3855 331.8823 15.09344236  6382
2022-019D               
1 51827U 22019D   22100.48942484  .00004803  00000+0  30371-3 0  9996
2 51827  97.5155 176.4518 0018435 121.8871 332.3984 15.09345684  6382
2022-019E               
1 51828U 22019E   22100.48819375  .00006311  00000+0  39646-3 0  9999
2 51828  97.5150 176.4505 0019277 123.9949 331.9627 15.09455396  6389
2022-019F               
1 51829U 22019F   22100.46726848  .00007911  00000+0  49314-3 0  9990
2 51829  97.5196 176.4624 0018863 123.4580 236.8456 15.09661592  6388
2022-019G               
1 51830U 22019G   22100.46731760  .00007315  00000+0  45638-3 0  9994
2 51830  97.5134 176.4232 0019272 123.1442 237.1639 15.09652381  6389
2022-019H               
1 51831U 22019H   22100.55421786  .00005778  00000+0  36325-3 0  9993
2 51831  97.5156 176.5205 0020117 130.0191 339.2875 15.09446087  6394
2022-019J               
1 51832U 22019J   22100.48528096  .00002803  00000+0  17807-3 0  9998
2 51832  97.5141 176.4497 0020109 129.6472 326.0927 15.09499057  6384
2022-019K               
1 51833U 22019K   22100.47523284  .00006894  00000+0  42714-3 0  9991
2 51833  97.5130 176.4548 0017744 126.4162 328.9890 15.09947581  6382
2022-019L               
1 51834U 22019L   22100.54503531  .00005414  00000+0  33777-3 0  9999
2 51834  97.5153 176.5447 0018834 127.5009 342.0941 15.09779175  6397
2022-019M               
1 51835U 22019M   22100.54523220  .00005316  00000+0  33168-3 0  9992
2 51835  97.5156 176.5345 0018700 128.0744 343.1030 15.09788661  6393
2022-019N               
1 51836U 22019N   22100.47256061  .00008680  00000+0  53440-3 0  9993
2 51836  97.5145 176.4695 0017924 128.8111 326.0854 15.10100901  6382
2022-019P               
1 51837U 22019P   22100.52710745  .00008686  00000+0  53228-3 0  9994
2 51837  97.5097 176.5084 0018054 130.6452 286.2185 15.10267856  6394
2022-019Q               
1 51838U 22019Q   22100.53770887  .00009850  00000+0  60524-3 0  9990
2 51838  97.5139 176.5470 0017260 128.5753 343.0553 15.10147443  6399
2022-019R               
1 51839U 22019R   22100.52590549  .00005187  00000+0  31999-3 0  9998
2 51839  97.5133 176.5276 0016952 128.6380 280.9800 15.10234470  6393
2022-019S               
1 51840U 22019S   22100.52568383  .00005380  00000+0  33158-3 0  9995
2 51840  97.5145 176.5353 0016843 127.2586 285.4616 15.10257486  6393
2022-019T               
1 51841U 22019T   22100.60649758  .00005704  00000+0  35068-3 0  9993
2 51841  97.5138 176.6160 0016579 125.9957  14.2167 15.10322841  6405
2022-019U               
1 51842U 22019U   22100.52321689  .00009523  00000+0  38430-3 0  9994
2 51842  97.5606 177.6014 0071709  66.9775  42.0898 15.22614811  6441
2022-019V               
1 51843U 22019V   22100.46549656  .00002316  00000+0  14541-3 0  9994
2 51843  97.5165 176.4988 0017479 132.3604 322.9117 15.10151989  6388
2022-019W               
1 51844U 22019W   22100.48244595  .00005658  00000+0  35715-3 0  9999
2 51844  97.5138 176.4385 0020701 130.6239 286.0096 15.09300854  6287
2022-019X               
1 51845U 22019X   22100.54126112  .00006500  00000+0  40179-3 0  9998
2 51845  97.5135 176.5438 0018153 128.3189 344.0552 15.10049115  6319
STRIX-BETA              
1 51847U 22020A   22100.50356543  .00003780  00000+0  29848-3 0  9998
2 51847  97.7736 154.3095 0014330 143.3011 323.9325 15.01229489  6090
GOES 18                 
1 51850U 22021A   22100.53394873 -.00000185  00000+0  00000+0 0  9996
2 51850   0.0142 305.0973 0000279 197.8164 158.6943  1.00271908   474
STARLINK-3542           
1 51852U 22022A   22099.91667824 -.00723877  00000+0 -15105-1 0  9992
2 51852  53.2175 321.1726 0001720  35.3886 322.0383 15.47270763  7113
STARLINK-3539           
1 51853U 22022B   22100.58334491 -.00719537  00000+0 -15620-1 0  9990
2 51853  53.2175 317.9952 0001515  45.2165  57.7533 15.46121000  7162
STARLINK-3541           
1 51854U 22022C   22100.58334491 -.00720121  00000+0 -15496-1 0  9993
2 51854  53.2174 317.9948 0001399  54.5765  65.8882 15.46377037  7223
STARLINK-3545           
1 51855U 22022D   22099.91667824 -.00724300  00000+0 -14914-1 0  9994
2 51855  53.2175 321.1721 0001474  43.5603 339.0160 15.47654520  7067
STARLINK-3568           
1 51856U 22022E   22100.58334491 -.00720280  00000+0 -15431-1 0  9990
2 51856  53.2174 317.9946 0001404  56.7638  72.3908 15.46504994  7252
STARLINK-3571           
1 51857U 22022F   22099.91667824 -.00724366  00000+0 -14783-1 0  9992
2 51857  53.2175 321.1713 0001309  53.2569 345.8935 15.47910210  7118
STARLINK-3563           
1 51858U 22022G   22099.91667824 -.00724313  00000+0 -14848-1 0  9997
2 51858  53.2175 321.1716 0001381  48.1271 342.7554 15.47782349  7118
STARLINK-3560           
1 51859U 22022H   22100.58334491 -.00715681  00000+0 -64349-2 0  9995
2 51859  53.2177 316.2165 0001225 117.3255 205.1792 15.69689419  7240
STARLINK-3559           
1 51860U 22022J   22099.91667824 -.00719610  00000+0 -56661-2 0  9994
2 51860  53.2173 319.5168 0001178  82.9910  74.7714 15.72831869  7087
STARLINK-3562           
1 51861U 22022K   22099.91667824 -.00719030  00000+0 -61297-2 0  9992
2 51861  53.2172 319.5078 0001186  80.2611  74.3044 15.70966532  7081
STARLINK-3508           
1 51862U 22022L   22099.91667824 -.00721458  00000+0 -56503-2 0  9994
2 51862  53.2173 319.5154 0001229  97.4073  61.0874 15.72961168  7130
STARLINK-3555           
1 51863U 22022M   22099.91667824 -.00719094  00000+0 -60643-2 0  9998
2 51863  53.2172 319.5068 0001200  98.1028  59.0119 15.71222185  7082
STARLINK-3548           
1 51864U 22022N   22100.58334491 -.00715689  00000+0 -64008-2 0  9991
2 51864  53.2177 316.2160 0001164 111.6441 212.5381 15.69817232  7249
STARLINK-3503           
1 51865U 22022P   22100.25002315 -.00721499  00000+0 -61515-2 0  9999
2 51865  53.2174 317.8591 0001414 128.9362 117.1869 15.70968998  7141
STARLINK-3553           
1 51866U 22022Q   22100.25002315 -.00721338  00000+0 -62507-2 0  9994
2 51866  53.2174 317.8607 0001240 113.6837 128.3282 15.70585512  7145
STARLINK-3590           
1 51867U 22022R   22100.58334491 -.00716011  00000+0 -62007-2 0  9991
2 51867  53.2177 316.2129 0001332 128.0514 205.3887 15.70584178  7194
STARLINK-3578           
1 51868U 22022S   22099.91667824 -.00718969  00000+0 -60304-2 0  9997
2 51868  53.2172 319.5061 0001208  77.4112  80.9206 15.71349886  7091
STARLINK-3588           
1 51869U 22022T   22100.25002315 -.00721503  00000+0 -60199-2 0  9996
2 51869  53.2174 317.8555 0001318 121.7097 129.3574 15.71480221  7141
STARLINK-3591           
1 51870U 22022U   22100.25002315 -.00721568  00000+0 -60861-2 0  9995
2 51870  53.2174 317.8573 0001329 123.3607 125.3112 15.71224640  7190
STARLINK-3567           
1 51871U 22022V   22100.25002315 -.00721453  00000+0 -59870-2 0  9997
2 51871  53.2174 317.8545 0001245 113.5609 138.6462 15.71607997  7195
STARLINK-3554           
1 51872U 22022W   22100.25002315 -.00721511  00000+0 -60529-2 0  9996
2 51872  53.2174 317.8563 0001222 111.6394 138.2493 15.71352456  7143
STARLINK-3582           
1 51873U 22022X   22100.58334491 -.00716130  00000+0 -59720-2 0  9998
2 51873  53.2178 316.2054 0001076 105.8332 236.6606 15.71478873  7196
STARLINK-3574           
1 51874U 22022Y   22100.58334491 -.00716150  00000+0 -60373-2 0  9997
2 51874  53.2177 316.2077 0001065  95.9567 244.1424 15.71223284  7194
STARLINK-3585           
1 51875U 22022Z   22099.91667824 -.00719232  00000+0 -56897-2 0  9991
2 51875  53.2174 319.4944 0001228  75.4272  93.7190 15.72721495  7092
